ONEWEB-0306             
1 49188U 21083C   23355.52310456  .00000034  00000+0  54412-4 0  9994
2 49188  87.9216 156.2262 0001261  90.2290 269.8986 13.18684708110265
ONEWEB-0307             
1 49189U 21083D   23355.43700015 -.00000254  00000+0 -72913-3 0  9990
2 49189  87.8999 141.1092 0001513  98.9146 261.2154 13.13470001111631
ONEWEB-0320             
1 49190U 21083E   23355.52944610  .00007101  00000+0  17974-1 0  9993
2 49190  87.9216 156.2473 0001728  98.3404 261.7924 13.18654201111502
ONEWEB-0321             
1 49191U 21083F   23355.34671266  .00000536  00000+0  12872-2 0  9996
2 49191  87.9191  95.3572 0001710 117.7852 242.3455 13.20768226116866
ONEWEB-0322             
1 49192U 21083G   23355.43223254 -.00000105  00000+0 -32301-3 0  9991
2 49192  87.8999 141.0985 0001833 113.0871 247.0451 13.13469212111627
ONEWEB-0324             
1 49193U 21083H   23355.51468222  .00000079  00000+0  16861-3 0  9998
2 49193  87.9215 156.2322 0001876  90.2569 269.8778 13.18685094110244
ONEWEB-0325             
1 49194U 21083J   23355.51890051  .00000145  00000+0  33448-3 0  9992
2 49194  87.9192 156.2470 0001449  96.3531 263.7766 13.18682286110256
ONEWEB-0326             
1 49195U 21083K   23355.45777709  .00000090  00000+0  19456-3 0  9992
2 49195  87.9216 156.2585 0001598  71.7347 288.3959 13.18686873110239
